H1 CPF 01  gfz 2021 07 04 12  6852 tandemx   
H2 1003001  6202 36605    2021 07 04 12 59 42 2021 07 09 00 00 42   120 1 1  0 0 0
H9
10 0 59402  35982.000000  0   -3052560.785   5766557.099   2202533.272
10 0 59402  36102.000000  0   -2731777.789   5542123.221   3037356.875
10 0 59402  36222.000000  0   -2368059.364   5214791.422   3818690.483
10 0 59402  36342.000000  0   -1969529.559   4789621.945   4532788.043
10 0 59402  36462.000000  0   -1544817.293   4273538.513   5167100.305
10 0 59402  36582.000000  0   -1102869.822   3675207.977   5710495.532
10 0 59402  36702.000000  0    -652764.476   3004886.089   6153451.218
10 0 59402  36822.000000  0    -203522.972   2274234.184   6488215.419
10 0 59402  36942.000000  0     236068.065   1496111.701   6708936.088
10 0 59402  37062.000000  0     657628.135    684346.514   6811758.282
10 0 59402  37182.000000  0    1053341.583   -146511.737   6794886.135
10 0 59402  37302.000000  0    1416101.477   -981451.299   6658613.061
10 0 59402  37422.000000  0    1739637.065  -1805269.321   6405317.381
10 0 59402  37542.000000  0    2018622.599  -2602848.165   6039423.959
10 0 59402  37662.000000  0    2248766.034  -3359434.329   5567331.940
10 0 59402  37782.000000  0    2426875.987  -4060914.272   4997307.944
10 0 59402  37902.000000  0    2550905.316  -4694081.633   4339346.877
10 0 59402  38022.000000  0    2619972.268  -5246892.511   3605001.643
10 0 59402  38142.000000  0    2634356.968  -5708702.574   2807182.323
10 0 59402  38262.000000  0    2595472.636  -6070480.906   1959928.729
10 0 59402  38382.000000  0    2505812.646  -6324992.919   1078159.322
10 0 59402  38502.000000  0    2368875.325  -6466949.778    177404.138
10 0 59402  38622.000000  0    2189068.020  -6493122.287   -726476.169
10 0 59402  38742.000000  0    1971591.567  -6402412.211  -1617580.302
10 0 59402  38862.000000  0    1722307.592  -6195879.244  -2480254.453
10 0 59402  38982.000000  0    1447593.683  -5876725.905  -3299374.837
10 0 59402  39102.000000  0    1154190.230  -5450235.780  -4060616.182
10 0 59402  39222.000000  0     849044.560  -4923674.540  -4750701.241
10 0 59402  39342.000000  0     539153.931  -4306154.008  -5357628.021
10 0 59402  39462.000000  0     231411.924  -3608463.694  -5870870.996
10 0 59402  39582.000000  0     -67538.614  -2842873.255  -6281553.613
10 0 59402  39702.000000  0    -351442.940  -2022911.192  -6582590.237
10 0 59402  39822.000000  0    -614559.881  -1163124.178  -6768797.053
10 0 59402  39942.000000  0    -851773.079   -278821.129  -6836972.466
10 0 59402  40062.000000  0   -1058686.629    614195.126  -6785945.566
10 0 59402  40182.000000  0   -1231704.272   1499902.806  -6616593.205
10 0 59402  40302.000000  0   -1368090.501   2362341.258  -6331826.381
10 0 59402  40422.000000  0   -1466013.046   3185891.561  -5936546.766
10 0 59402  40542.000000  0   -1524566.821   3955556.493  -5437571.959
10 0 59402  40662.000000  0   -1543777.854   4657233.098  -4843528.938
10 0 59402  40782.000000  0   -1524588.039   5277975.320  -4164716.580
10 0 59402  40902.000000  0   -1468820.022   5806240.037  -3412936.467
10 0 59402  41022.000000  0   -1379122.317   6232110.556  -2601295.276
10 0 59402  41142.000000  0   -1258896.230   6547494.270  -1743981.868
10 0 59402  41262.000000  0   -1112205.559   6746288.511   -856019.855
10 0 59402  41382.000000  0    -943671.247   6824509.153     46997.359
10 0 59402  41502.000000  0    -758352.887   6780380.433    949186.131
10 0 59402  41622.000000  0    -561620.297   6614379.862   1834662.067
10 0 59402  41742.000000  0    -359018.636   6329234.581   2687830.072
10 0 59402  41862.000000  0    -156130.821   5929872.547   3493665.971
10 0 59402  41982.000000  0      41559.115   5423332.099   4237986.117
10 0 59402  42102.000000  0     228798.670   4818631.683   4907703.705
10 0 59402  42222.000000  0     400693.441   4126594.227   5491060.378
10 0 59402  42342.000000  0     552822.979   3359644.995   5977826.910
10 0 59402  42462.000000  0     681343.806   2531580.718   6359479.974
10 0 59402  42582.000000  0     783077.024   1657314.480   6629345.179
10 0 59402  42702.000000  0     855579.872    752602.898   6782708.017
10 0 59402  42822.000000  0     897199.565   -166239.422   6816890.290
10 0 59402  42942.000000  0     907108.641  -1082632.813   6731294.636
10 0 59402  43062.000000  0     885321.038  -1980031.767   6527415.164
10 0 59402  43182.000000  0     832688.719  -2842223.552   6208813.469
10 0 59402  43302.000000  0     750878.706  -3653623.298   5781059.850
10 0 59402  43422.000000  0     642330.950  -4399557.265   5251639.063
10 0 59402  43542.000000  0     510199.311  -5066531.172   4629825.799
10 0 59402  43662.000000  0     358275.454  -5642481.759   3926529.347
10 0 59402  43782.000000  0     190896.140  -6117005.589   3154105.866
10 0 59402  43902.000000  0      12836.544  -6481557.525   2326141.910
10 0 59402  44022.000000  0    -170808.138  -6729613.592   1457213.115
10 0 59402  44142.000000  0    -354749.575  -6856796.702    562624.149
10 0 59402  44262.000000  0    -533639.300  -6860960.603   -341869.692
10 0 59402  44382.000000  0    -702203.588  -6742226.339  -1240350.087
10 0 59402  44502.000000  0    -855376.252  -6502972.417  -2117024.458
10 0 59402  44622.000000  0    -988426.657  -6147781.014  -2956510.077
10 0 59402  44742.000000  0   -1097080.073  -5683341.178  -3744109.094
10 0 59402  44862.000000  0   -1177627.021  -5118310.731  -4466067.966
10 0 59402  44982.000000  0   -1227018.750  -4463141.663  -5109814.775
10 0 59402  45102.000000  0   -1242947.251  -3729875.560  -5664171.420
10 0 59402  45222.000000  0   -1223908.036  -2931913.520  -6119538.734
10 0 59402  45342.000000  0   -1169244.679  -2083765.178  -6468052.172
10 0 59402  45462.000000  0   -1079174.711  -1200782.352  -6703705.822
10 0 59402  45582.000000  0    -954796.968   -298883.056  -6822445.364
10 0 59402  45702.000000  0    -798079.852    605730.971  -6822229.963
10 0 59402  45822.000000  0    -611830.210   1496857.926  -6703062.651
10 0 59402  45942.000000  0    -399644.617   2358578.350  -6466990.253
10 0 59402  46062.000000  0    -165843.270   3175532.651  -6118073.192
10 0 59402  46182.000000  0      84614.064   3933191.925  -5662324.358
10 0 59402  46302.000000  0     346228.067   4618115.656  -5107614.976
10 0 59402  46422.000000  0     613073.646   5218193.095  -4463550.646
10 0 59402  46542.000000  0     878926.459   5722865.160  -3741315.981
10 0 59402  46662.000000  0    1137399.779   6123320.207  -2953489.094
10 0 59402  46782.000000  0    1382088.627   6412659.875  -2113828.921
10 0 59402  46902.000000  0    1606718.311   6586030.922  -1237037.320
10 0 59402  47022.000000  0    1805293.863   6640718.345   -338499.708
10 0 59402  47142.000000  0    1972246.128   6576195.767    565990.497
10 0 59402  47262.000000  0    2102570.253   6394132.053   1460516.531
10 0 59402  47382.000000  0    2191953.846   6098354.416   2329326.356
10 0 59402  47502.000000  0    2236891.170   5694768.187   3157118.012
10 0 59402  47622.000000  0    2234780.859   5191236.092   3929316.717
10 0 59402  47742.000000  0    2184003.399   4597418.746   4632337.992
10 0 59402  47862.000000  0    2083977.108   3924578.880   5253830.807
10 0 59402  47982.000000  0    1935190.902   3185356.676   5782891.396
10 0 59402  48102.000000  0    1739215.529   2393526.060   6210250.183
10 0 59402  48222.000000  0    1498691.498   1563732.157   6528430.122
10 0 59402  48342.000000  0    1217294.029    711215.264   6731871.339
10 0 59402  48462.000000  0     899676.376   -148470.483   6817021.161
10 0 59402  48582.000000  0     551392.740   -999739.463   6782393.240
10 0 59402  48702.000000  0     178800.865  -1827257.548   6628592.940
10 0 59402  48822.000000  0    -211054.219  -2616218.261   6358307.195
10 0 59402  48942.000000  0    -610572.920  -3352608.916   5976259.547
10 0 59402  49062.000000  0   -1011746.739  -4023460.124   5489130.208
10 0 59402  49182.000000  0   -1406315.712  -4617076.274   4905446.488
10 0 59402  49302.000000  0   -1785937.372  -5123246.488   4235442.082
10 0 59402  49422.000000  0   -2142362.399  -5533430.334   3490882.400
10 0 59402  49542.000000  0   -2467612.742  -5840911.059   2684858.601
10 0 59402  49662.000000  0   -2754157.666  -6040912.519   1831556.037
10 0 59402  49782.000000  0   -2995083.723  -6130679.011    946000.936
10 0 59402  49902.000000  0   -3184254.550  -6109515.163     43789.466
10 0 59402  50022.000000  0   -3316456.272  -5978784.413   -859194.985
10 0 59402  50142.000000  0   -3387524.922  -5741865.777  -1747070.554
10 0 59402  50262.000000  0   -3394452.525  -5404069.569  -2604244.717
10 0 59402  50382.000000  0   -3335469.224  -4972514.795  -3415694.785
10 0 59402  50502.000000  0   -3210098.883  -4455971.566  -4167234.459
10 0 59402  50622.000000  0   -3019187.671  -3864674.337  -4845760.477
10 0 59402  50742.000000  0   -2764906.174  -3210111.285  -5439476.124
10 0 59402  50862.000000  0   -2450725.583  -2504794.502  -5938088.258
10 0 59402  50982.000000  0   -2081368.420  -1762016.722  -6332975.867
10 0 59402  51102.000000  0   -1662734.377   -995598.979  -6617328.229
10 0 59402  51222.000000  0   -1201804.219   -219634.572  -6786250.372
10 0 59402  51342.000000  0    -706524.265    551765.480  -6836837.146
10 0 59402  51462.000000  0    -185671.574   1304722.314  -6768217.854
10 0 59402  51582.000000  0     351297.421   2025832.236  -6581569.234
10 0 59402  51702.000000  0     894413.280   2702399.566  -6280099.547
10 0 59402  51822.000000  0    1433375.279   3322657.477  -5869000.159
10 0 59402  51942.000000  0    1957742.286   3875971.900  -5355364.481
10 0 59402  52062.000000  0    2457131.876   4353025.491  -4748076.971
10 0 59402  52182.000000  0    2921424.304   4745980.125  -4057671.087
10 0 59402  52302.000000  0    3340967.063   5048613.589  -3296156.241
10 0 59402  52422.000000  0    3706776.593   5256426.990  -2476816.754
99
